ORBCOMM FM20 [+]        
1 25416U 98046D   24019.57224959  .00001763  00000+0  66521-3 0  9993
2 25416  44.9945  93.5221 0002078 231.6044 128.4617 14.34795986330331
ORBCOMM FM16 [-]        
1 25417U 98046E   24019.67050836  .00002633  00000+0  95302-3 0  9992
2 25417  44.9946  89.5991 0005861 235.7590 124.2702 14.35620344330230
ORBCOMM FM15 [-]        
1 25418U 98046F   24019.60659225  .00002424  00000+0  88556-3 0  9994
2 25418  44.9976  93.7063 0005323 236.7152 123.3186 14.35367057330234
ORBCOMM FM14 [-]        
1 25419U 98046G   24020.00183076  .00002527  00000+0  91878-3 0  9992
2 25419  44.9962  91.0886 0004216 229.6817 187.5836 14.35498877330478
ORBCOMM FM13 [+]        
1 25420U 98046H   24019.35790358  .00002107  00000+0  78397-3 0  9992
2 25420  44.9975  98.4160 0006274 220.1513 139.8871 14.34876050329227
ORBCOMM FM21 [-]        
1 25475U 98053A   24019.58413812  .00001843  00000+0  69209-3 0  9990
2 25475  45.0074 181.5361 0001363 172.2613 187.8255 14.34861616323278
ORBCOMM FM22 [-]        
1 25476U 98053B   24019.52949681  .00002206  00000+0  81182-3 0  9991
2 25476  45.0062 179.4951 0003151 166.2944 193.7989 14.35292269323615
ORBCOMM FM23 [-]        
1 25477U 98053C   24019.54492574  .00002192  00000+0  81368-3 0  9998
2 25477  45.0066 184.1713 0002371 164.3748 195.7173 14.34868506323724
